[{"OBJECT_NAME":"STARLINK-33851","OBJECT_ID":"2025-085V","EPOCH":"2026-03-09T05:38:43.323360","MEAN_MOTION":15.2757957,"ECCENTRICITY":0.00018338,"INCLINATION":43.0038,"RA_OF_ASC_NODE":33.1993,"ARG_OF_PERICENTER":257.4057,"MEAN_ANOMALY":102.659,"EPHEMERIS_TYPE":0,"CLASSIFICATION_TYPE":"U","NORAD_CAT_ID":63683,"ELEMENT_SET_NO":999,"REV_AT_EPOCH":4880,"BSTAR":0.001071424,"MEAN_MOTION_DOT":0.00029338,"MEAN_MOTION_DDOT":0},{"OBJECT_NAME":"AVUM R\/B","OBJECT_ID":"2015-028B","EPOCH":"2026-03-09T15:47:10.915008","MEAN_MOTION":15.38120394,"ECCENTRICITY":0.01316946,"INCLINATION":98.6577,"RA_OF_ASC_NODE":312.3046,"ARG_OF_PERICENTER":250.9525,"MEAN_ANOMALY":107.7413,"EPHEMERIS_TYPE":0,"CLASSIFICATION_TYPE":"U","NORAD_CAT_ID":40698,"ELEMENT_SET_NO":999,"REV_AT_EPOCH":58785,"BSTAR":0.00031736457,"MEAN_MOTION_DOT":0.00015963,"MEAN_MOTION_DDOT":0}]
